{
    "links": {
        "self": "http://www.neowsapp.com/rest/v1/neo/3892696?api_key=iIulBulltgU6a56xZRHN4H3l9WmuAYTsLGpBGhQ2"
    },
    "id": "3892696",
    "neo_reference_id": "3892696",
    "name": "(2019 VM3)",
    "designation": "2019 VM3",
    "nasa_jpl_url": "http://ssd.jpl.nasa.gov/sbdb.cgi?sstr=3892696",
    "absolute_magnitude_h": 25.0,
    "estimated_diameter": {
        "kilometers": {
            "estimated_diameter_min": 0.02658,
            "estimated_diameter_max": 0.0594346868
        },
        "meters": {
            "estimated_diameter_min": 26.58,
            "estimated_diameter_max": 59.4346868419
        },
        "miles": {
            "estimated_diameter_min": 0.0165160412,
            "estimated_diameter_max": 0.0369309908
        },
        "feet": {
            "estimated_diameter_min": 87.2047272,
            "estimated_diameter_max": 194.9956979785
        }
    },
    "is_potentially_hazardous_asteroid": false,
    "close_approach_data": [
        {
            "close_approach_date": "2019-10-16",
            "close_approach_date_full": "2019-Oct-16 18:10",
            "epoch_date_close_approach": 1571249400000,
            "relative_velocity": {
                "kilometers_per_second": "12.5882844428",
                "kilometers_per_hour": "45317.82399417",
                "miles_per_hour": "28158.7334701552"
            },
            "miss_distance": {
                "astronomical": "0.0319368269",
                "lunar": "12.4234256641",
                "kilometers": "4777681.278798703",
                "miles": "2968713.4855719814"
            },
            "orbiting_body": "Earth"
        }
    ],
    "orbital_data": {
        "orbit_id": "1",
        "orbit_determination_date": "2019-11-06 14:42:33",
        "first_observation_date": "2019-11-03",
        "last_observation_date": "2019-11-05",
        "data_arc_in_days": 2,
        "observations_used": 16,
        "orbit_uncertainty": "9",
        "minimum_orbit_intersection": ".0309446",
        "jupiter_tisserand_invariant": "4.514",
        "epoch_osculation": "2458791.5",
        "eccentricity": ".4510428052144489",
        "semi_major_axis": "1.457496718400604",
        "inclination": "2.6414292446579",
        "ascending_node_longitude": "340.1198789396231",
        "orbital_period": "642.7022277525112",
        "perihelion_distance": ".8001033099423418",
        "perihelion_argument": "333.9424060790761",
        "aphelion_distance": "2.114890126858866",
        "perihelion_time": "2458725.163892869634",
        "mean_anomaly": "37.15717409357999",
        "mean_motion": ".5601349807964678",
        "equinox": "J2000",
        "orbit_class": {
            "orbit_class_type": "APO",
            "orbit_class_description": "Near-Earth asteroid orbits which cross the Earth’s orbit similar to that of 1862 Apollo",
            "orbit_class_range": "a (semi-major axis) > 1.0 AU; q (perihelion) < 1.017 AU"
        }
    },
    "is_sentry_object": false
}